STARLINK-30427          
1 57865U 23144B   26067.67654380  .00000036  00000+0  10830-4 0  9999
2 57865  43.0007 290.8198 0001476 234.3471 125.7243 15.27578133137441
TRANSPORTER-12 OBJECT BA
1 62657U 25009BA  26068.70118713  .00011330  00000+0  42733-3 0  9991
2 62657  97.3985 151.1390 0000403 234.6623 125.4579 15.27214003 63739
