[{"OBJECT_NAME":"STARLINK-30427","OBJECT_ID":"2023-144B","EPOCH":"2026-03-08T16:14:13.384320","MEAN_MOTION":15.27578133,"ECCENTRICITY":0.00014763,"INCLINATION":43.0007,"RA_OF_ASC_NODE":290.8198,"ARG_OF_PERICENTER":234.3471,"MEAN_ANOMALY":125.7243,"EPHEMERIS_TYPE":0,"CLASSIFICATION_TYPE":"U","NORAD_CAT_ID":57865,"ELEMENT_SET_NO":999,"REV_AT_EPOCH":13744,"BSTAR":1.0829603e-5,"MEAN_MOTION_DOT":3.6e-7,"MEAN_MOTION_DDOT":0},{"OBJECT_NAME":"TRANSPORTER-12 OBJECT BA","OBJECT_ID":"2025-009BA","EPOCH":"2026-03-09T16:49:42.568896","MEAN_MOTION":15.27214003,"ECCENTRICITY":4.03e-5,"INCLINATION":97.3985,"RA_OF_ASC_NODE":151.139,"ARG_OF_PERICENTER":234.6623,"MEAN_ANOMALY":125.4579,"EPHEMERIS_TYPE":0,"CLASSIFICATION_TYPE":"U","NORAD_CAT_ID":62657,"ELEMENT_SET_NO":999,"REV_AT_EPOCH":6373,"BSTAR":0.00042732654,"MEAN_MOTION_DOT":0.0001133,"MEAN_MOTION_DDOT":0}]
